[{"OBJECT_NAME":"STARLINK-2298","OBJECT_ID":"2021-024AX","EPOCH":"2026-03-10T00:00:02.999808","MEAN_MOTION":15.15852398,"ECCENTRICITY":0.00022088,"INCLINATION":53.0935,"RA_OF_ASC_NODE":330.2189,"ARG_OF_PERICENTER":83.1069,"MEAN_ANOMALY":79.3652,"EPHEMERIS_TYPE":0,"CLASSIFICATION_TYPE":"U","NORAD_CAT_ID":48022,"ELEMENT_SET_NO":999,"REV_AT_EPOCH":575,"BSTAR":0.0020729399,"MEAN_MOTION_DOT":0.00040038,"MEAN_MOTION_DDOT":0},{"OBJECT_NAME":"OBJECT C","OBJECT_ID":"2026-027C","EPOCH":"2026-03-09T23:08:13.765344","MEAN_MOTION":15.17820753,"ECCENTRICITY":0.00106742,"INCLINATION":97.491,"RA_OF_ASC_NODE":197.9834,"ARG_OF_PERICENTER":198.1811,"MEAN_ANOMALY":161.9042,"EPHEMERIS_TYPE":0,"CLASSIFICATION_TYPE":"U","NORAD_CAT_ID":67748,"ELEMENT_SET_NO":999,"REV_AT_EPOCH":390,"BSTAR":0.00040034515,"MEAN_MOTION_DOT":8.044e-5,"MEAN_MOTION_DDOT":0}]
